NANOSATC-BR1            
1 40024U 14033Q   26068.98267556  .00020336  00000+0  74295-3 0  9994
2 40024  98.0845  92.7804 0004644 147.6715 212.4808 15.28136801638811
STARLINK-35932          
1 66526U 25265L   26067.63899759  .00041123  00000+0  14946-2 0  9998
2 66526  42.9979 283.7947 0000323 336.7520  23.3317 15.27602763 16950
